{
  "type": "FeatureCollection",
  "features": [
    {
      "type": "Feature",
      "properties": {
        "norad_id": 36828,
        "name": "BEIDOU-2 IGSO-1 (C06)",
        "group": "beidou",
        "lat": 53.949473251095874,
        "lon": -97.19629933580903,
        "alt_km": 35887.15585380724,
        "timestamp": "2025-12-22T04:03:39.434189+00:00",
        "meta_object_name": "BEIDOU-2 IGSO-1 (C06)",
        "meta_object_id": "2010-036A",
        "meta_epoch": "2025-12-20T21:47:26.739168",
        "meta_mean_motion": 1.00282395,
        "meta_eccentricity": 0.0051798,
        "meta_inclination": 54.2882,
        "meta_ra_of_asc_node": 164.5739,
        "meta_arg_of_pericenter": 215.2932,
        "meta_mean_anomaly": 144.6604,
        "meta_ephemeris_type": 0,
        "meta_classification_type": "U",
        "meta_norad_cat_id": 36828,
        "meta_element_set_no": 999,
        "meta_rev_at_epoch": 5631,
        "meta_bstar": 0,
        "meta_mean_motion_dot": -5.5e-07,
        "meta_mean_motion_ddot": 0,
        "tle_line1": "1 36828U 10036A   25354.90794837 -.00000055  00000+0  00000+0 0  9992",
        "tle_line2": "2 36828  54.2882 164.5739 0051798 215.2932 144.6604  1.00282395 56317"
      },
      "geometry": {
        "type": "Point",
        "coordinates": [
          -97.19629933580903,
          53.949473251095874
        ]
      }
    },
    {
      "type": "Feature",
      "properties": {
        "norad_id": 37210,
        "name": "BEIDOU-2 G4 (C04)",
        "group": "beidou",
        "lat": -2.856638542121976,
        "lon": -47.972546209828465,
        "alt_km": 35757.410521060185,
        "timestamp": "2025-12-22T04:03:39.434212+00:00",
        "meta_object_name": "BEIDOU-2 G4 (C04)",
        "meta_object_id": "2010-057A",
        "meta_epoch": "2025-12-21T19:05:37.304160",
        "meta_mean_motion": 1.00271975,
        "meta_eccentricity": 0.0010412,
        "meta_inclination": 3.2057,
        "meta_ra_of_asc_node": 69.9051,
        "meta_arg_of_pericenter": 193.1092,
        "meta_mean_anomaly": 274.086,
        "meta_ephemeris_type": 0,
        "meta_classification_type": "U",
        "meta_norad_cat_id": 37210,
        "meta_element_set_no": 999,
        "meta_rev_at_epoch": 5551,
        "meta_bstar": 0,
        "meta_mean_motion_dot": -9.1e-07,
        "meta_mean_motion_ddot": 0,
        "tle_line1": "1 37210U 10057A   25355.79557065 -.00000091  00000+0  00000+0 0  9999",
        "tle_line2": "2 37210   3.2057  69.9051 0010412 193.1092 274.0860  1.00271975 55510"
      },
      "geometry": {
        "type": "Point",
        "coordinates": [
          -47.972546209828465,
          -2.856638542121976
        ]
      }
    },
    {
      "type": "Feature",
      "properties": {
        "norad_id": 37256,
        "name": "BEIDOU-2 IGSO-2 (C07)",
        "group": "beidou",
        "lat": -10.198530478843134,
        "lon": -95.32365685205252,
        "alt_km": 35915.62986937543,
        "timestamp": "2025-12-22T04:03:39.434225+00:00",
        "meta_object_name": "BEIDOU-2 IGSO-2 (C07)",
        "meta_object_id": "2010-068A",
        "meta_epoch": "2025-12-21T17:07:55.147872",
        "meta_mean_motion": 1.00283664,
        "meta_eccentricity": 0.0048543,
        "meta_inclination": 47.8695,
        "meta_ra_of_asc_node": 274.0391,
        "meta_arg_of_pericenter": 216.3693,
        "meta_mean_anomaly": 325.0635,
        "meta_ephemeris_type": 0,
        "meta_classification_type": "U",
        "meta_norad_cat_id": 37256,
        "meta_element_set_no": 999,
        "meta_rev_at_epoch": 5501,
        "meta_bstar": 0,
        "meta_mean_motion_dot": -1.86e-06,
        "meta_mean_motion_ddot": 0,
        "tle_line1": "1 37256U 10068A   25355.71383273 -.00000186  00000+0  00000+0 0  9996",
        "tle_line2": "2 37256  47.8695 274.0391 0048543 216.3693 325.0635  1.00283664 55019"
      },
      "geometry": {
        "type": "Point",
        "coordinates": [
          -95.32365685205252,
          -10.198530478843134
        ]
      }
    },
    {
      "type": "Feature",
      "properties": {
        "norad_id": 37384,
        "name": "BEIDOU-2 IGSO-3 (C08)",
        "group": "beidou",
        "lat": -32.57861301845027,
        "lon": -118.40808081282925,
        "alt_km": 35661.95556711535,
        "timestamp": "2025-12-22T04:03:39.434259+00:00",
        "meta_object_name": "BEIDOU-2 IGSO-3 (C08)",
        "meta_object_id": "2011-013A",
        "meta_epoch": "2025-12-21T13:47:18.522816",
        "meta_mean_motion": 1.00268792,
        "meta_eccentricity": 0.00353792,
        "meta_inclination": 62.1546,
        "meta_ra_of_asc_node": 41.8324,
        "meta_arg_of_pericenter": 187.6182,
        "meta_mean_anomaly": 175.1134,
        "meta_ephemeris_type": 0,
        "meta_classification_type": "U",
        "meta_norad_cat_id": 37384,
        "meta_element_set_no": 999,
        "meta_rev_at_epoch": 5388,
        "meta_bstar": 0,
        "meta_mean_motion_dot": -1.61e-06,
        "meta_mean_motion_ddot": 0,
        "tle_line1": "1 37384U 11013A   25355.57451994 -.00000161  00000+0  00000+0 0  9992",
        "tle_line2": "2 37384  62.1546  41.8324 0035379 187.6182 175.1134  1.00268792 53884"
      },
      "geometry": {
        "type": "Point",
        "coordinates": [
          -118.40808081282925,
          -32.57861301845027
        ]
      }
    },
    {
      "type": "Feature",
      "properties": {
        "norad_id": 37763,
        "name": "BEIDOU-2 IGSO-4 (C09)",
        "group": "beidou",
        "lat": 52.94658162214019,
        "lon": -122.05377823004473,
        "alt_km": 36328.78401870901,
        "timestamp": "2025-12-22T04:03:39.434288+00:00",
        "meta_object_name": "BEIDOU-2 IGSO-4 (C09)",
        "meta_object_id": "2011-038A",
        "meta_epoch": "2025-12-21T10:06:26.864064",
        "meta_mean_motion": 1.00280083,
        "meta_eccentricity": 0.01491557,
        "meta_inclination": 54.5854,
        "meta_ra_of_asc_node": 167.2693,
        "meta_arg_of_pericenter": 230.0944,
        "meta_mean_anomaly": 299.1265,
        "meta_ephemeris_type": 0,
        "meta_classification_type": "U",
        "meta_norad_cat_id": 37763,
        "meta_element_set_no": 999,
        "meta_rev_at_epoch": 5286,
        "meta_bstar": 0,
        "meta_mean_motion_dot": 5.9e-07,
        "meta_mean_motion_ddot": 0,
        "tle_line1": "1 37763U 11038A   25355.42114426  .00000059  00000+0  00000+0 0  9995",
        "tle_line2": "2 37763  54.5854 167.2693 0149155 230.0944 299.1265  1.00280083 52867"
      },
      "geometry": {
        "type": "Point",
        "coordinates": [
          -122.05377823004473,
          52.94658162214019
        ]
      }
    },
    {
      "type": "Feature",
      "properties": {
        "norad_id": 37948,
        "name": "BEIDOU-2 IGSO-5 (C10)",
        "group": "beidou",
        "lat": -19.88885060064056,
        "lon": -105.24090296095648,
        "alt_km": 35943.05693861612,
        "timestamp": "2025-12-22T04:03:39.434303+00:00",
        "meta_object_name": "BEIDOU-2 IGSO-5 (C10)",
        "meta_object_id": "2011-073A",
        "meta_epoch": "2025-12-21T18:15:38.509632",
        "meta_mean_motion": 1.00289356,
        "meta_eccentricity": 0.010984,
        "meta_inclination": 48.0035,
        "meta_ra_of_asc_node": 273.7484,
        "meta_arg_of_pericenter": 222.2807,
        "meta_mean_anomaly": 321.9503,
        "meta_ephemeris_type": 0,
        "meta_classification_type": "U",
        "meta_norad_cat_id": 37948,
        "meta_element_set_no": 999,
        "meta_rev_at_epoch": 5135,
        "meta_bstar": 0,
        "meta_mean_motion_dot": -1.44e-06,
        "meta_mean_motion_ddot": 0,
        "tle_line1": "1 37948U 11073A   25355.76086238 -.00000144  00000+0  00000+0 0  9991",
        "tle_line2": "2 37948  48.0035 273.7484 0109840 222.2807 321.9503  1.00289356 51354"
      },
      "geometry": {
        "type": "Point",
        "coordinates": [
          -105.24090296095648,
          -19.88885060064056
        ]
      }
    },
    {
      "type": "Feature",
      "properties": {
        "norad_id": 38091,
        "name": "BEIDOU-2 G5 (C05)",
        "group": "beidou",
        "lat": 2.011493617509341,
        "lon": -149.46091350314663,
        "alt_km": 35787.70632836139,
        "timestamp": "2025-12-22T04:03:39.434316+00:00",
        "meta_object_name": "BEIDOU-2 G5 (C05)",
        "meta_object_id": "2012-008A",
        "meta_epoch": "2025-12-19T16:03:31.750272",
        "meta_mean_motion": 1.00268606,
        "meta_eccentricity": 0.0012969,
        "meta_inclination": 3.1258,
        "meta_ra_of_asc_node": 70.6861,
        "meta_arg_of_pericenter": 231.3522,
        "meta_mean_anomaly": 86.1393,
        "meta_ephemeris_type": 0,
        "meta_classification_type": "U",
        "meta_norad_cat_id": 38091,
        "meta_element_set_no": 999,
        "meta_rev_at_epoch": 5056,
        "meta_bstar": 0,
        "meta_mean_motion_dot": 7.9e-07,
        "meta_mean_motion_ddot": 0,
        "tle_line1": "1 38091U 12008A   25353.66911748  .00000079  00000+0  00000+0 0  9996",
        "tle_line2": "2 38091   3.1258  70.6861 0012969 231.3522  86.1393  1.00268606 50560"
      },
      "geometry": {
        "type": "Point",
        "coordinates": [
          -149.46091350314663,
          2.011493617509341
        ]
      }
    }
  ]
}